start=new Date('2023-02-17T00:00:00.000Z').valueOf();
sats=[{"OBJECT_TYPE":"PAYLOAD","DECAY_DATE":null,"ELEMENT_SET_NO":"999","TIME_SYSTEM":"UTC","RCS_SIZE":"LARGE","OBJECT_ID":"2020-025AK","REV_AT_EPOCH":"15701","OBJECT_NAME":"STARLINK-1356","MEAN_MOTION_DOT":"-0.00005224","TLE_LINE2":"2 45564  53.0532  60.8737 0001711  88.0478 272.0707 15.06394303157013","EPHEMERIS_TYPE":"0","PERIOD":"95.593","APOAPSIS":"548.416","TLE_LINE1":"1 45564U 20025AK  23047.72344058 -.00005224  00000-0 -33210-3 0  9999","LAUNCH_DATE":"2020-04-22","MEAN_ELEMENT_THEORY":"SGP4","SEMIMAJOR_AXIS":"6925.366","NORAD_CAT_ID":"45564","ARG_OF_PERICENTER":"88.0478","INCLINATION":"53.0532","GP_ID":"225682843","MEAN_MOTION":"15.06394303","EPOCH":"2023-02-16T17:21:45.266112","CENTER_NAME":"EARTH","CLASSIFICATION_TYPE":"U","ECCENTRICITY":"0.00017110","MEAN_ANOMALY":"272.0707","RA_OF_ASC_NODE":"60.8737","COUNTRY_CODE":"US","PERIAPSIS":"546.046","SITE":"AFETR","FILE":"3799178","REF_FRAME":"TEME","MEAN_MOTION_DDOT":"0.0000000000000","BSTAR":"-0.00033210000000"},{"COUNTRY_CODE":"US","GP_ID":"225636577","MEAN_MOTION":"15.06411138","CENTER_NAME":"EARTH","EPOCH":"2023-02-16T07:37:53.393376","CLASSIFICATION_TYPE":"U","ECCENTRICITY":"0.00014680","MEAN_ANOMALY":"264.3505","RA_OF_ASC_NODE":"62.7020","FILE":"3798293","REF_FRAME":"TEME","MEAN_MOTION_DDOT":"0.0000000000000","BSTAR":"0.00026497000000","PERIAPSIS":"546.163","SITE":"AFETR","OBJECT_ID":"2020-025AL","REV_AT_EPOCH":"15695","OBJECT_NAME":"STARLINK-1357","MEAN_MOTION_DOT":"0.00003669","TLE_LINE2":"2 45565  53.0551  62.7020 0001468  95.7651 264.3505 15.06411138156956","OBJECT_TYPE":"PAYLOAD","DECAY_DATE":null,"ELEMENT_SET_NO":"999","TIME_SYSTEM":"UTC","RCS_SIZE":"LARGE","MEAN_ELEMENT_THEORY":"SGP4","SEMIMAJOR_AXIS":"6925.314","NORAD_CAT_ID":"45565","INCLINATION":"53.0551","ARG_OF_PERICENTER":"95.7651","EPHEMERIS_TYPE":"0","PERIOD":"95.591","APOAPSIS":"548.196","TLE_LINE1":"1 45565U 20025AL  23047.31797909  .00003669  00000-0  26497-3 0  9990","LAUNCH_DATE":"2020-04-22"},{"TLE_LINE2":"2 45566  53.0555  60.8425 0001637  92.9450 267.1726 15.06385104157010","MEAN_MOTION_DOT":"-0.00009164","OBJECT_ID":"2020-025AM","OBJECT_NAME":"STARLINK-1358","REV_AT_EPOCH":"15701","TIME_SYSTEM":"UTC","ELEMENT_SET_NO":"999","RCS_SIZE":"LARGE","OBJECT_TYPE":"PAYLOAD","DECAY_DATE":null,"ARG_OF_PERICENTER":"92.9450","INCLINATION":"53.0555","SEMIMAJOR_AXIS":"6925.394","MEAN_ELEMENT_THEORY":"SGP4","NORAD_CAT_ID":"45566","TLE_LINE1":"1 45566U 20025AM  23047.73081090 -.00009164  00000-0 -59731-3 0  9999","LAUNCH_DATE":"2020-04-22","EPHEMERIS_TYPE":"0","APOAPSIS":"548.393","PERIOD":"95.593","COUNTRY_CODE":"US","MEAN_ANOMALY":"267.1726","ECCENTRICITY":"0.00016370","CLASSIFICATION_TYPE":"U","RA_OF_ASC_NODE":"60.8425","MEAN_MOTION":"15.06385104","GP_ID":"225682344","CENTER_NAME":"EARTH","EPOCH":"2023-02-16T17:32:22.061760","REF_FRAME":"TEME","BSTAR":"-0.00059731000000","MEAN_MOTION_DDOT":"0.0000000000000","FILE":"3799178","PERIAPSIS":"546.126","SITE":"AFETR"},{"MEAN_MOTION_DOT":"0.00001864","TLE_LINE2":"2 45567  53.0546  60.7895 0001898  86.1454 273.9752 15.06402194156415","OBJECT_NAME":"STARLINK-1361","REV_AT_EPOCH":"15641","OBJECT_ID":"2020-025AN","RCS_SIZE":"LARGE","ELEMENT_SET_NO":"999","TIME_SYSTEM":"UTC","DECAY_DATE":null,"OBJECT_TYPE":"PAYLOAD","ARG_OF_PERICENTER":"86.1454","INCLINATION":"53.0546","SEMIMAJOR_AXIS":"6925.342","NORAD_CAT_ID":"45567","MEAN_ELEMENT_THEORY":"SGP4","LAUNCH_DATE":"2020-04-22","TLE_LINE1":"1 45567U 20025AN  23047.74186929  .00001864  00000-0  14398-3 0  9995","PERIOD":"95.592","APOAPSIS":"548.521","EPHEMERIS_TYPE":"0","COUNTRY_CODE":"US","RA_OF_ASC_NODE":"60.7895","ECCENTRICITY":"0.00018980","CLASSIFICATION_TYPE":"U","MEAN_ANOMALY":"273.9752","EPOCH":"2023-02-16T17:48:17.506656","CENTER_NAME":"EARTH","GP_ID":"225646570","MEAN_MOTION":"15.06402194","MEAN_MOTION_DDOT":"0.0000000000000","BSTAR":"0.00014398000000","REF_FRAME":"TEME","FILE":"3798424","SITE":"AFETR","PERIAPSIS":"545.892"},{"NORAD_CAT_ID":"45568","SEMIMAJOR_AXIS":"6925.395","MEAN_ELEMENT_THEORY":"SGP4","INCLINATION":"53.0521","ARG_OF_PERICENTER":"87.4097","EPHEMERIS_TYPE":"0","PERIOD":"95.593","APOAPSIS":"548.895","TLE_LINE1":"1 45568U 20025AP  23047.75664939 -.00000824  00000-0 -36392-4 0  9995","LAUNCH_DATE":"2020-04-22","OBJECT_ID":"2020-025AP","REV_AT_EPOCH":"15641","OBJECT_NAME":"STARLINK-1363","MEAN_MOTION_DOT":"-0.00000824","TLE_LINE2":"2 45568  53.0521  60.9761 0002360  87.4097 272.7162 15.06384800156410","OBJECT_TYPE":"PAYLOAD","DECAY_DATE":null,"ELEMENT_SET_NO":"999","TIME_SYSTEM":"UTC","RCS_SIZE":"LARGE","FILE":"3798424","REF_FRAME":"TEME","MEAN_MOTION_DDOT":"0.0000000000000","BSTAR":"-0.00003639200000","PERIAPSIS":"545.626","SITE":"AFETR","COUNTRY_CODE":"US","GP_ID":"225646389","MEAN_MOTION":"15.06384800","CENTER_NAME":"EARTH","EPOCH":"2023-02-16T18:09:34.507296","ECCENTRICITY":"0.00023600","CLASSIFICATION_TYPE":"U","MEAN_ANOMALY":"272.7162","RA_OF_ASC_NODE":"60.9761"},{"MEAN_ELEMENT_THEORY":"SGP4","SEMIMAJOR_AXIS":"6925.356","NORAD_CAT_ID":"45569","INCLINATION":"53.0530","ARG_OF_PERICENTER":"87.9703","EPHEMERIS_TYPE":"0","PERIOD":"95.592","APOAPSIS":"548.303","TLE_LINE1":"1 45569U 20025AQ  23047.74555759  .00000132  00000-0  27737-4 0  9997","LAUNCH_DATE":"2020-04-22","OBJECT_ID":"2020-025AQ","REV_AT_EPOCH":"15701","OBJECT_NAME":"STARLINK-1366","MEAN_MOTION_DOT":"0.00000132","TLE_LINE2":"2 45569  53.0530  60.7842 0001562  87.9703 272.1465 15.06397545157018","OBJECT_TYPE":"PAYLOAD","DECAY_DATE":null,"ELEMENT_SET_NO":"999","TIME_SYSTEM":"UTC","RCS_SIZE":"LARGE","FILE":"3799178","REF_FRAME":"TEME","MEAN_MOTION_DDOT":"0.0000000000000","BSTAR":"0.00002773700000","PERIAPSIS":"546.139","SITE":"AFETR","COUNTRY_CODE":"US","GP_ID":"225682094","MEAN_MOTION":"15.06397545","EPOCH":"2023-02-16T17:53:36.175776","CENTER_NAME":"EARTH","CLASSIFICATION_TYPE":"U","ECCENTRICITY":"0.00015620","MEAN_ANOMALY":"272.1465","RA_OF_ASC_NODE":"60.7842"},{"FILE":"3799178","BSTAR":"-0.00098419000000","MEAN_MOTION_DDOT":"0.0000000000000","REF_FRAME":"TEME","SITE":"AFETR","PERIAPSIS":"546.126","COUNTRY_CODE":"US","EPOCH":"2023-02-16T17:42:59.288544","CENTER_NAME":"EARTH","MEAN_MOTION":"15.06378339","GP_ID":"225681846","RA_OF_ASC_NODE":"60.8069","MEAN_ANOMALY":"271.4358","CLASSIFICATION_TYPE":"U","ECCENTRICITY":"0.00016660","MEAN_ELEMENT_THEORY":"SGP4","SEMIMAJOR_AXIS":"6925.415","NORAD_CAT_ID":"45570","INCLINATION":"53.0540","ARG_OF_PERICENTER":"88.6821","APOAPSIS":"548.434","PERIOD":"95.594","EPHEMERIS_TYPE":"0","LAUNCH_DATE":"2020-04-22","TLE_LINE1":"1 45570U 20025AR  23047.73818621 -.00014902  00000-0 -98419-3 0  9994","REV_AT_EPOCH":"15701","OBJECT_NAME":"STARLINK-1376","OBJECT_ID":"2020-025AR","TLE_LINE2":"2 45570  53.0540  60.8069 0001666  88.6821 271.4358 15.06378339157010","MEAN_MOTION_DOT":"-0.00014902","DECAY_DATE":null,"OBJECT_TYPE":"PAYLOAD","RCS_SIZE":"LARGE","TIME_SYSTEM":"UTC","ELEMENT_SET_NO":"999"},{"FILE":"3798293","MEAN_MOTION_DDOT":"0.0000000000000","BSTAR":"0.00150520000000","REF_FRAME":"TEME","SITE":"AFETR","PERIAPSIS":"545.929","COUNTRY_CODE":"US","EPOCH":"2023-02-16T10:07:50.288448","CENTER_NAME":"EARTH","GP_ID":"225637577","MEAN_MOTION":"15.06435753","RA_OF_ASC_NODE":"52.2240","CLASSIFICATION_TYPE":"U","ECCENTRICITY":"0.00016970","MEAN_ANOMALY":"269.7135","SEMIMAJOR_AXIS":"6925.239","NORAD_CAT_ID":"45571","MEAN_ELEMENT_THEORY":"SGP4","INCLINATION":"53.0553","ARG_OF_PERICENTER":"90.4048","PERIOD":"95.590","APOAPSIS":"548.279","EPHEMERIS_TYPE":"0","LAUNCH_DATE":"2020-04-22","TLE_LINE1":"1 45571U 20025AS  23047.42210982  .00022231  00000-0  15052-2 0  9990","REV_AT_EPOCH":"15712","OBJECT_NAME":"STARLINK-1261","OBJECT_ID":"2020-025AS","MEAN_MOTION_DOT":"0.00022231","TLE_LINE2":"2 45571  53.0553  52.2240 0001697  90.4048 269.7135 15.06435753157126","DECAY_DATE":null,"OBJECT_TYPE":"PAYLOAD","RCS_SIZE":"LARGE","ELEMENT_SET_NO":"999","TIME_SYSTEM":"UTC"},{"COUNTRY_CODE":"US","MEAN_MOTION":"15.06437404","GP_ID":"225646500","EPOCH":"2023-02-16T11:32:45.861504","CENTER_NAME":"EARTH","MEAN_ANOMALY":"271.0339","ECCENTRICITY":"0.00017750","CLASSIFICATION_TYPE":"U","RA_OF_ASC_NODE":"51.9658","FILE":"3798422","REF_FRAME":"TEME","BSTAR":"0.00162170000000","MEAN_MOTION_DDOT":"0.0000000000000","PERIAPSIS":"545.870","SITE":"AFETR","OBJECT_ID":"2020-025AT","OBJECT_NAME":"STARLINK-1320","REV_AT_EPOCH":"15651","TLE_LINE2":"2 45572  53.0544  51.9658 0001775  89.0853 271.0339 15.06437404156510","MEAN_MOTION_DOT":"0.00023981","OBJECT_TYPE":"PAYLOAD","DECAY_DATE":null,"TIME_SYSTEM":"UTC","ELEMENT_SET_NO":"999","RCS_SIZE":"LARGE","MEAN_ELEMENT_THEORY":"SGP4","SEMIMAJOR_AXIS":"6925.234","NORAD_CAT_ID":"45572","INCLINATION":"53.0544","ARG_OF_PERICENTER":"89.0853","EPHEMERIS_TYPE":"0","APOAPSIS":"548.328","PERIOD":"95.590","TLE_LINE1":"1 45572U 20025AT  23047.48108636  .00023981  00000-0  16217-2 0  9996","LAUNCH_DATE":"2020-04-22"},{"TLE_LINE1":"1 45573U 20025AU  23047.72437204 -.00000416  00000-0 -90445-5 0  9998","LAUNCH_DATE":"2020-04-22","EPHEMERIS_TYPE":"0","APOAPSIS":"548.805","PERIOD":"95.593","INCLINATION":"53.0550","ARG_OF_PERICENTER":"80.9440","SEMIMAJOR_AXIS":"6925.377","NORAD_CAT_ID":"45573","MEAN_ELEMENT_THEORY":"SGP4","TIME_SYSTEM":"UTC","ELEMENT_SET_NO":"999","RCS_SIZE":"LARGE","OBJECT_TYPE":"PAYLOAD","DECAY_DATE":null,"TLE_LINE2":"2 45573  53.0550  50.8716 0002257  80.9440 279.1805 15.06390731156551","MEAN_MOTION_DOT":"-0.00000416","OBJECT_ID":"2020-025AU","REV_AT_EPOCH":"15655","OBJECT_NAME":"STARLINK-1321","PERIAPSIS":"545.679","SITE":"AFETR","REF_FRAME":"TEME","BSTAR":"-0.00000904450000","MEAN_MOTION_DDOT":"0.0000000000000","FILE":"3798422","MEAN_ANOMALY":"279.1805","CLASSIFICATION_TYPE":"U","ECCENTRICITY":"0.00022570","RA_OF_ASC_NODE":"50.8716","MEAN_MOTION":"15.06390731","GP_ID":"225646323","CENTER_NAME":"EARTH","EPOCH":"2023-02-16T17:23:05.744256","COUNTRY_CODE":"US"}];
